     3.04           N: GNSS NAV DATA    M: MIXED            RINEX VERSION / TYPE
ssrcrin-15.6.1x                         20250101 224500 UTC PGM / RUN BY / DATE 
    18                                                      LEAP SECONDS        
                                                            END OF HEADER       
S23 2025 01 01 22 44 00 0.000000000000E+00 0.000000000000E+00 3.411100000000E+05
     3.866796400000E+04 0.000000000000E+00 0.000000000000E+00 6.300000000000E+01
     1.681330800000E+04 0.000000000000E+00 0.000000000000E+00 3.276700000000E+04
     0.000000000000E+00 0.000000000000E+00 0.000000000000E+00 1.250000000000E+02
S21 2025 01 01 22 43 44 0.000000000000E+00 0.000000000000E+00 3.411210000000E+05
     4.200468400000E+04 0.000000000000E+00 0.000000000000E+00 6.300000000000E+01
    -3.674932960000E+03 0.000000000000E+00 0.000000000000E+00 3.276700000000E+04
     0.000000000000E+00 0.000000000000E+00 0.000000000000E+00 9.200000000000E+01
S27 2025 01 01 22 46 24 0.000000000000E+00 0.000000000000E+00 3.411580000000E+05
     2.419629952000E+04 1.771250000000E-03-3.000000000000E-07 6.300000000000E+01
     3.456024304000E+04-3.733750000000E-03 8.750000000000E-08 3.276700000000E+04
     4.401388000000E+02 2.566000000000E-02-2.375000000000E-06 6.200000000000E+01
S36 2025 01 01 22 44 32 0.000000000000E+00 0.000000000000E+00 3.411580000000E+05
     4.200368800000E+04 0.000000000000E+00 0.000000000000E+00 6.300000000000E+01
     3.674846960000E+03 0.000000000000E+00 0.000000000000E+00 3.276700000000E+04
     0.000000000000E+00 0.000000000000E+00 0.000000000000E+00 1.780000000000E+02
S28 2025 01 01 22 46 24 2.048909664154E-08 2.910383045673E-11 3.411580000000E+05
     5.145694480000E+03 3.493750000000E-04-1.625000000000E-07 3.100000000000E+01
     4.185437504000E+04-1.295625000000E-03 2.500000000000E-08 4.096000000000E+03
    -1.375360000000E+01-1.236000000000E-03 6.250000000000E-08 6.200000000000E+01
S23 2025 01 01 22 46 08 0.000000000000E+00 0.000000000000E+00 3.411710000000E+05
     3.866796400000E+04 0.000000000000E+00 0.000000000000E+00 6.300000000000E+01
     1.681330800000E+04 0.000000000000E+00 0.000000000000E+00 3.276700000000E+04
     0.000000000000E+00 0.000000000000E+00 0.000000000000E+00 1.260000000000E+02
S44 2025 01 01 22 46 24 8.414499461651E-07 0.000000000000E+00 3.411920000000E+05
     7.313232480000E+03 2.000000000000E-04 1.500000000000E-07 6.300000000000E+01
     4.150213896000E+04 2.043750000000E-03 2.500000000000E-08 3.276700000000E+04
     1.537739200000E+03-8.463600000000E-02-4.062500000000E-06 6.000000000000E+01
S21 2025 01 01 22 46 40 0.000000000000E+00 0.000000000000E+00 3.412020000000E+05
     4.200468400000E+04 0.000000000000E+00 0.000000000000E+00 6.300000000000E+01
    -3.674932960000E+03 0.000000000000E+00 0.000000000000E+00 3.276700000000E+04
     0.000000000000E+00 0.000000000000E+00 0.000000000000E+00 9.300000000000E+01
S36 2025 01 01 22 46 56 0.000000000000E+00 0.000000000000E+00 3.412300000000E+05
     4.200368800000E+04 0.000000000000E+00 0.000000000000E+00 6.300000000000E+01
     3.674846960000E+03 0.000000000000E+00 0.000000000000E+00 3.276700000000E+04
     0.000000000000E+00 0.000000000000E+00 0.000000000000E+00 1.790000000000E+02
E07 2025 01 01 22 30 00-1.613471540622E-04-1.946887095983E-12 0.000000000000E+00
     5.900000000000E+01-1.673437500000E+02 2.600822620416E-09 8.487675423693E-01
    -7.733702659607E-06 1.246089814231E-04 1.118890941143E-05 5.440618747711E+03
     3.402000000000E+05-5.774199962616E-08 3.130991225666E-01 6.891787052155E-08
     9.636394394735E-01 1.028125000000E+02-3.150708918302E-01-5.193073455211E-09
     2.178662178596E-10 5.170000000000E+02 2.347000000000E+03
     3.120000000000E+00 0.000000000000E+00 3.725290298462E-09 4.423782229424E-09
     3.412550000000E+05
E07 2025 01 01 22 30 00-1.613485510461E-04-1.946887095983E-12 0.000000000000E+00
     5.900000000000E+01-1.673437500000E+02 2.600822620416E-09 8.487675423693E-01
    -7.733702659607E-06 1.246089814231E-04 1.118890941143E-05 5.440618747711E+03
     3.402000000000E+05-5.774199962616E-08 3.130991225666E-01 6.891787052155E-08
     9.636394394735E-01 1.028125000000E+02-3.150708918302E-01-5.193073455211E-09
     2.178662178596E-10 2.580000000000E+02 2.347000000000E+03
     3.120000000000E+00 0.000000000000E+00 3.725290298462E-09 0.000000000000E+00
     3.412900000000E+05
S23 2025 01 01 22 48 00 0.000000000000E+00 0.000000000000E+00 3.412930000000E+05
     3.866796400000E+04 0.000000000000E+00 0.000000000000E+00 6.300000000000E+01
     1.681330800000E+04 0.000000000000E+00 0.000000000000E+00 3.276700000000E+04
     0.000000000000E+00 0.000000000000E+00 0.000000000000E+00 1.270000000000E+02
S44 2025 01 01 22 48 32 8.414499461651E-07 0.000000000000E+00 3.413120000000E+05
     7.313260720000E+03 2.406250000000E-04 1.500000000000E-07 6.300000000000E+01
     4.150240096000E+04 2.049375000000E-03 1.250000000000E-08 3.276700000000E+04
     1.526838800000E+03-8.568000000000E-02-4.062500000000E-06 6.000000000000E+01
S21 2025 01 01 22 49 20 0.000000000000E+00 0.000000000000E+00 3.413670000000E+05
     4.200468400000E+04 0.000000000000E+00 0.000000000000E+00 6.300000000000E+01
    -3.674932960000E+03 0.000000000000E+00 0.000000000000E+00 3.276700000000E+04
     0.000000000000E+00 0.000000000000E+00 0.000000000000E+00 9.400000000000E+01
S36 2025 01 01 22 49 36 0.000000000000E+00 0.000000000000E+00 3.413770000000E+05
     4.200368800000E+04 0.000000000000E+00 0.000000000000E+00 6.300000000000E+01
     3.674846960000E+03 0.000000000000E+00 0.000000000000E+00 3.276700000000E+04
     0.000000000000E+00 0.000000000000E+00 0.000000000000E+00 1.800000000000E+02
S27 2025 01 01 22 50 40 0.000000000000E+00 0.000000000000E+00 3.414150000000E+05
     2.419673744000E+04 1.690625000000E-03-3.000000000000E-07 6.300000000000E+01
     3.455928280000E+04-3.714375000000E-03 1.000000000000E-07 3.276700000000E+04
     4.466296000000E+02 2.506000000000E-02-2.375000000000E-06 6.300000000000E+01
S28 2025 01 01 22 50 40 2.793967723846E-08 3.365130396560E-11 3.414150000000E+05
     5.145778560000E+03 3.056250000000E-04-1.625000000000E-07 3.100000000000E+01
     4.185404416000E+04-1.290625000000E-03 2.500000000000E-08 4.096000000000E+03
    -1.406800000000E+01-1.220000000000E-03 6.250000000000E-08 6.300000000000E+01
S23 2025 01 01 22 50 08 0.000000000000E+00 0.000000000000E+00 3.414190000000E+05
     3.866796400000E+04 0.000000000000E+00 0.000000000000E+00 6.300000000000E+01
     1.681330800000E+04 0.000000000000E+00 0.000000000000E+00 3.276700000000E+04
     0.000000000000E+00 0.000000000000E+00 0.000000000000E+00 1.280000000000E+02
S44 2025 01 01 22 50 40 8.414499461651E-07 0.000000000000E+00 3.414320000000E+05
     7.313294240000E+03 2.812500000000E-04 1.500000000000E-07 6.300000000000E+01
     4.150266368000E+04 2.054375000000E-03 1.250000000000E-08 3.276700000000E+04
     1.515805600000E+03-8.671200000000E-02-4.000000000000E-06 6.000000000000E+01
E26 2025 01 01 22 40 00-1.661612186581E-04 1.094235813071E-11 0.000000000000E+00
     6.000000000000E+01 1.701250000000E+02 2.699398155054E-09-2.907644928751E+00
     7.964670658112E-06 3.908129874617E-04 1.901760697365E-06 5.440611108780E+03
     3.408000000000E+05-8.009374141693E-08-1.777026365149E+00 4.470348358154E-08
     9.930110733428E-01 3.140312500000E+02-1.484692367008E+00-5.625234313588E-09
     2.817974522807E-10 5.170000000000E+02 2.347000000000E+03
     3.120000000000E+00 0.000000000000E+00-6.752088665962E-09-6.752088665962E-09
     3.414650000000E+05
E07 2025 01 01 22 40 00-1.613484928384E-04-1.961097950698E-12 0.000000000000E+00
     6.000000000000E+01-1.691562500000E+02 2.610108721505E-09 9.260909200898E-01
    -7.808208465576E-06 1.246058382094E-04 1.108832657337E-05 5.440618022919E+03
     3.408000000000E+05-7.450580596924E-08 3.130960504387E-01 5.960464477539E-08
     9.636396384303E-01 1.052187500000E+02-3.180097786809E-01-5.188787562401E-09
     2.075086435679E-10 5.170000000000E+02 2.347000000000E+03
     3.120000000000E+00 0.000000000000E+00 3.725290298462E-09 4.423782229424E-09
     3.414650000000E+05
E29 2025 01 01 22 40 00-5.857815267518E-05-3.097966327914E-12 0.000000000000E+00
     6.000000000000E+01-1.443437500000E+02 2.696898050915E-09-2.849301668166E+00
    -6.735324859619E-06 3.130702534690E-04 1.135841012001E-05 5.440619268417E+03
     3.408000000000E+05 3.725290298462E-08 3.155314930503E-01 3.166496753693E-08
     9.569442237223E-01 9.565625000000E+01 2.644892383504E+00-5.315221400306E-09
     2.278666344171E-10 5.170000000000E+02 2.347000000000E+03
     3.120000000000E+00 0.000000000000E+00-5.122274160385E-09-4.190951585770E-09
     3.414650000000E+05
E13 2025 01 01 22 40 00-2.862408291548E-05-4.405364961713E-13 0.000000000000E+00
     6.000000000000E+01 1.771875000000E+02 2.662968066166E-09-2.496283287007E+00
     8.177012205124E-06 3.852775553241E-04 2.982094883919E-06 5.440606403351E+03
     3.408000000000E+05-7.450580596924E-08-1.776068819435E+00-7.450580596924E-09
     9.996896264570E-01 2.920937500000E+02-1.100143784170E+00-5.554159924483E-09
     2.346526313668E-10 5.170000000000E+02 2.347000000000E+03
     3.120000000000E+00 0.000000000000E+00 2.561137080193E-09 3.259629011154E-09
     3.414650000000E+05
S36 2025 01 01 22 52 00 0.000000000000E+00 0.000000000000E+00 3.415210000000E+05
     4.200368800000E+04 0.000000000000E+00 0.000000000000E+00 6.300000000000E+01
     3.674846960000E+03 0.000000000000E+00 0.000000000000E+00 3.276700000000E+04
     0.000000000000E+00 0.000000000000E+00 0.000000000000E+00 1.810000000000E+02
S21 2025 01 01 22 52 00 0.000000000000E+00 0.000000000000E+00 3.415290000000E+05
     4.200468400000E+04 0.000000000000E+00 0.000000000000E+00 6.300000000000E+01
    -3.674932960000E+03 0.000000000000E+00 0.000000000000E+00 3.276700000000E+04
     0.000000000000E+00 0.000000000000E+00 0.000000000000E+00 9.500000000000E+01
